IRIDIUM 150             
1 43257U 18030J   25201.88721483  .00000048  00000+0  99265-5 0  9991
2 43257  86.3933  68.9709 0001898  88.0934 272.0479 14.34217747382691
IRIDIUM 143             
1 43258U 18030K   25201.37980722  .00000008  00000+0 -41062-5 0  9998
2 43258  86.3934  69.2628 0001597  93.0734 267.0645 14.34217394382537
IRIDIUM 161             
1 43478U 18047C   25201.49026110  .00000314  00000+0  87386-4 0  9992
2 43478  86.4473 227.0187 0002532  87.9827 272.1664 14.43279464377290
IRIDIUM 152             
1 43479U 18047D   25201.49206250  .00000025  00000+0  19950-5 0  9990
2 43479  86.3948 226.8787 0002369  87.9250 272.2217 14.34217820374940
IRIDIUM 147             
1 43480U 18047E   25201.49840624  .00000046  00000+0  92199-5 0  9990
2 43480  86.3950 226.8754 0002440  92.9915 267.1560 14.34217744374942
IRIDIUM 110             
1 43481U 18047F   25201.50474810  .00000094  00000+0  26596-4 0  9993
2 43481  86.3952 226.9559 0002750  86.8676 273.2835 14.34217777374937
IRIDIUM 162             
1 43482U 18047G   25201.48396025  .00000232  00000+0  63036-4 0  9996
2 43482  86.4472 226.9164 0002540  84.3029 275.8462 14.43280249377289
IRIDIUM 160             
1 43569U 18061A   25201.72965817  .00000043  00000+0  84316-5 0  9991
2 43569  86.3989 195.2732 0002518  86.2807 273.8676 14.34217777365868
